NORAD_CAT_ID,OBJECT_NAME,OBJECT_TYPE,EPOCH,MEAN_MOTION,ECCENTRICITY,INCLINATION,RA_OF_ASC_NODE,ARG_OF_PERICENTER,MEAN_ANOMALY,BSTAR,MEAN_MOTION_DOT,MEAN_MOTION_DDOT,TLE_LINE0,TLE_LINE1,TLE_LINE2,SEMIMAJOR_AXIS,PERIOD,APOGEE,PERIGEE,DECAYED
51993.0,STARLINK-3648,PAYLOAD,2024-07-18 08:27:30,15.08841284,0.0001371,53.2148,209.6511,90.9735,269.1414,8.2718e-05,1.029e-05,0.0,0 STARLINK-3648,1 51993U 22025AP  24200.35243898  .00001029  00000-0  82718-4 0  9990,2 51993  53.2148 209.6511 0001371  90.9735 269.1414 15.08841284130586,6917.876,95.437,540.69,538.793,0.0
51993.0,STARLINK-3648,PAYLOAD,2024-07-18 17:59:49,15.08839448,0.0001351,53.2146,207.8665,90.6704,269.4442,7.3063e-05,8.75e-06,0.0,0 STARLINK-3648,1 51993U 22025AP  24200.74988078  .00000875  00000-0  73063-4 0  9990,2 51993  53.2146 207.8665 0001351  90.6704 269.4442 15.08839448130645,6917.882,95.438,540.682,538.812,0.0
51993.0,STARLINK-3648,PAYLOAD,2024-07-19 05:07:31,15.08841301,0.0001368,53.2147,205.7845,92.7631,267.3517,6.5745e-05,7.59e-06,0.0,0 STARLINK-3648,1 51993U 22025AP  24201.21356025  .00000759  00000-0  65745-4 0  9993,2 51993  53.2147 205.7845 0001368  92.7631 267.3517 15.08841301131825,6917.876,95.437,540.688,538.795,0.0
51993.0,STARLINK-3648,PAYLOAD,2024-07-19 06:42:54,15.08840653,0.0001367,53.2148,205.4874,91.2356,268.8793,6.0201e-05,6.7e-06,0.0,0 STARLINK-3648,1 51993U 22025AP  24201.27980086  .00000670  00000-0  60201-4 0  9993,2 51993  53.2148 205.4874 0001367  91.2356 268.8793 15.08840653130721,6917.878,95.438,540.689,538.798,0.0
51993.0,STARLINK-3648,PAYLOAD,2024-07-19 17:50:36,15.0884315,0.0001381,53.215,203.4061,89.9455,270.1696,7.5524e-05,9.14e-06,0.0,0 STARLINK-3648,1 51993U 22025AP  24201.74347756  .00000914  00000-0  75524-4 0  9991,2 51993  53.2150 203.4061 0001381  89.9455 270.1696 15.08843150130790,6917.871,95.437,540.691,538.78,0.0
51993.0,STARLINK-3648,PAYLOAD,2024-07-20 06:33:41,15.08846277,0.0001398,53.2151,201.027,91.3771,268.7382,8.6217e-05,1.085e-05,0.0,0 STARLINK-3648,1 51993U 22025AP  24202.27339425  .00001085  00000-0  86217-4 0  9995,2 51993  53.2151 201.0270 0001398  91.3771 268.7382 15.08846277131983,6917.861,95.437,540.693,538.759,0.0
51993.0,STARLINK-3648,PAYLOAD,2024-07-21 04:49:06,15.08834396,0.0001422,53.2158,196.8639,92.4187,267.6968,-8.8353e-06,-4.29e-06,0.0,0 STARLINK-3648,1 51993U 22025AP  24203.20076513 -.00000429  00000-0 -88353-5 0  9992,2 51993  53.2158 196.8639 0001422  92.4187 267.6968 15.08834396132125,6917.898,95.438,540.746,538.779,0.0
51993.0,STARLINK-3648,PAYLOAD,2024-07-21 06:24:29,15.08835955,0.0001445,53.216,196.566,94.8426,265.2732,4.4385e-07,-2.81e-06,0.0,0 STARLINK-3648,1 51993U 22025AP  24203.26700382 -.00000281  00000-0  44385-6 0  9999,2 51993  53.2160 196.5660 0001445  94.8426 265.2732 15.08835955131029,6917.893,95.438,540.757,538.758,0.0
51993.0,STARLINK-3648,PAYLOAD,2024-07-22 04:39:52,15.08843937,0.0001397,53.2165,192.404,95.243,264.8721,3.1202e-05,2.09e-06,0.0,0 STARLINK-3648,1 51993U 22025AP  24204.19435838  .00000209  00000-0  31202-4 0  9994,2 51993  53.2165 192.4040 0001397  95.2430 264.8721 15.08843937132277,6917.868,95.437,540.7,538.767,0.0
51993.0,STARLINK-3648,PAYLOAD,2024-07-22 09:26:01,15.08847424,0.0001339,53.2165,191.5091,95.6844,264.43,1.8264e-05,3e-08,0.0,0 STARLINK-3648,1 51993U 22025AP  24204.39307594  .00000003  00000-0  18264-4 0  9998,2 51993  53.2165 191.5091 0001339  95.6844 264.4300 15.08847424131196,6917.858,95.437,540.649,538.796,0.0
51993.0,STARLINK-3648,PAYLOAD,2024-07-23 02:55:16,15.0883824,0.0001378,53.2154,188.2374,102.915,257.1996,6.7146e-05,7.81e-06,0.0,0 STARLINK-3648,1 51993U 22025AP  24205.12172112  .00000781  00000-0  67146-4 0  9992,2 51993  53.2154 188.2374 0001378 102.9150 257.1996 15.08838240132418,6917.886,95.438,540.704,538.797,0.0
51993.0,STARLINK-3648,PAYLOAD,2024-07-23 15:38:22,15.0883361,0.0001296,53.2156,185.8633,93.8553,266.2587,1.8488e-05,6e-08,0.0,0 STARLINK-3648,1 51993U 22025AP  24205.65164774  .00000006  00000-0  18488-4 0  9990,2 51993  53.2156 185.8633 0001296  93.8553 266.2587 15.08833610132496,6917.9,95.438,540.661,538.868,0.0
51993.0,STARLINK-3648,PAYLOAD,2024-07-24 07:32:13,15.08834945,0.000135,53.2164,182.8925,96.6317,263.4829,-6.6117e-07,-2.98e-06,0.0,0 STARLINK-3648,1 51993U 22025AP  24206.31405061 -.00000298  00000-0 -66117-6 0  9990,2 51993  53.2164 182.8925 0001350  96.6317 263.4829 15.08834945131484,6917.896,95.438,540.695,538.827,0.0
51993.0,STARLINK-3648,PAYLOAD,2024-07-25 04:12:14,15.08844178,0.0001523,53.2161,179.0259,103.6067,256.5095,8.7055e-05,1.098e-05,0.0,0 STARLINK-3648,1 51993U 22025AP  24207.17516302  .00001098  00000-0  87055-4 0  9995,2 51993  53.2161 179.0259 0001523 103.6067 256.5095 15.08844178132727,6917.868,95.437,540.786,538.679,0.0
51993.0,STARLINK-3648,PAYLOAD,2024-07-25 05:47:37,15.08847374,0.0001668,53.2161,178.728,101.7146,258.4034,7.4039e-05,8.91e-06,0.0,0 STARLINK-3648,1 51993U 22025AP  24207.24140163  .00000891  00000-0  74039-4 0  9999,2 51993  53.2161 178.7280 0001668 101.7146 258.4034 15.08847374131627,6917.858,95.437,540.877,538.569,0.0
51993.0,STARLINK-3648,PAYLOAD,2024-07-26 04:03:02,15.08811192,0.0001903,53.2168,174.5618,64.1351,295.9837,0.00036263,5.483e-05,0.0,0 STARLINK-3648,1 51993U 22025AP  24208.16877745  .00005483  00000-0  36263-3 0  9992,2 51993  53.2168 174.5618 0001903  64.1351 295.9837 15.08811192132879,6917.968,95.439,541.15,538.517,0.0
51993.0,STARLINK-3648,PAYLOAD,2024-07-26 07:13:48,15.08831438,0.0001941,53.2173,173.96,60.2862,299.8323,0.0001379,1.907e-05,0.0,0 STARLINK-3648,1 51993U 22025AP  24208.30125346  .00001907  00000-0  13790-3 0  9998,2 51993  53.2173 173.9600 0001941  60.2862 299.8323 15.08831438132895,6917.907,95.438,541.114,538.429,0.0
51993.0,STARLINK-3648,PAYLOAD,2024-07-26 15:10:43,15.08842995,0.0001499,53.216,172.4796,82.6307,277.4856,6.3005e-05,7.15e-06,0.0,0 STARLINK-3648,1 51993U 22025AP  24208.63244667  .00000715  00000-0  63005-4 0  9993,2 51993  53.2160 172.4796 0001499  82.6307 277.4856 15.08842995132940,6917.871,95.437,540.773,538.699,0.0
51993.0,STARLINK-3648,PAYLOAD,2024-07-27 03:53:47,15.08854333,0.0001505,53.2159,170.0991,92.663,267.4534,6.304e-05,7.16e-06,0.0,0 STARLINK-3648,1 51993U 22025AP  24209.16235671  .00000716  00000-0  63040-4 0  9997,2 51993  53.2159 170.0991 0001505  92.6630 267.4534 15.08854333133028,6917.837,95.437,540.743,538.66,0.0
51993.0,STARLINK-3648,PAYLOAD,2024-07-27 21:23:03,15.08831908,0.0001617,53.215,166.8285,102.2257,257.8916,1.9592e-05,2.4e-07,0.0,0 STARLINK-3648,1 51993U 22025AP  24209.89101082  .00000024  00000-0  19592-4 0  9990,2 51993  53.2150 166.8285 0001617 102.2257 257.8916 15.08831908132024,6917.905,95.438,540.889,538.651,0.0
51993.0,STARLINK-3648,PAYLOAD,2024-07-28 03:44:35,15.08836527,0.0001438,53.216,165.6407,95.7753,264.3403,-4.6538e-05,-1.028e-05,0.0,0 STARLINK-3648,1 51993U 22025AP  24210.15597138 -.00001028  00000-0 -46538-4 0  9999,2 51993  53.2160 165.6407 0001438  95.7753 264.3403 15.08836527133179,6917.891,95.438,540.751,538.761,0.0
51993.0,STARLINK-3648,PAYLOAD,2024-07-28 21:13:50,15.08834426,0.0001306,53.2161,162.3698,101.84,258.2739,-5.3367e-05,-1.137e-05,0.0,0 STARLINK-3648,1 51993U 22025AP  24210.88461434 -.00001137  00000-0 -53367-4 0  9997,2 51993  53.2161 162.3698 0001306 101.8400 258.2739 15.08834426132177,6917.897,95.438,540.666,538.859,0.0
51993.0,STARLINK-3648,PAYLOAD,2024-07-29 13:07:41,15.08865564,0.0001309,53.2161,159.3985,101.2937,258.8202,-0.00034649,-5.802e-05,0.0,0 STARLINK-3648,1 51993U 22025AP  24211.54700254 -.00005802  00000-0 -34649-3 0  9991,2 51993  53.2161 159.3985 0001309 101.2937 258.8202 15.08865564132273,6917.802,95.436,540.573,538.762,0.0
51993.0,STARLINK-3648,PAYLOAD,2024-07-29 19:29:14,15.08825172,0.0001367,53.2157,158.2084,100.48,259.6346,0.00026053,3.859e-05,0.0,0 STARLINK-3648,1 51993U 22025AP  24211.81197312  .00003859  00000-0  26053-3 0  9994,2 51993  53.2157 158.2084 0001367 100.4800 259.6346 15.08825172133427,6917.926,95.438,540.736,538.845,0.0
51993.0,STARLINK-3648,PAYLOAD,2024-07-30 12:58:28,15.08841551,0.0001392,53.216,154.9379,101.546,258.5688,0.00015103,2.117e-05,0.0,0 STARLINK-3648,1 51993U 22025AP  24212.54060836  .00002117  00000-0  15103-3 0  9995,2 51993  53.2160 154.9379 0001392 101.5460 258.5688 15.08841551132428,6917.876,95.437,540.704,538.778,0.0
51993.0,STARLINK-3648,PAYLOAD,2024-07-30 19:20:01,15.08839647,0.0001469,53.2172,153.7488,100.6127,259.5031,0.00010514,1.386e-05,0.0,0 STARLINK-3648,1 51993U 22025AP  24212.80557172  .00001386  00000-0  10514-3 0  9996,2 51993  53.2172 153.7488 0001469 100.6127 259.5031 15.08839647133577,6917.881,95.438,540.763,538.73,0.0
51993.0,STARLINK-3648,PAYLOAD,2024-07-31 12:49:16,15.08836383,0.0001447,53.217,150.479,104.2012,255.9141,2.7933e-05,1.57e-06,0.0,0 STARLINK-3648,1 51993U 22025AP  24213.53421623  .00000157  00000-0  27933-4 0  9997,2 51993  53.2170 150.4790 0001447 104.2012 255.9141 15.08836383132579,6917.891,95.438,540.757,538.755,0.0
51993.0,STARLINK-3648,PAYLOAD,2024-08-01 12:40:03,15.08846063,0.0001753,53.2162,146.015,90.7501,269.3692,-1.5641e-05,-5.37e-06,0.0,0 STARLINK-3648,1 51993U 22025AP  24214.52781311 -.00000537  00000-0 -15641-4 0  9997,2 51993  53.2162 146.0150 0001753  90.7501 269.3692 15.08846063132726,6917.862,95.437,540.94,538.514,0.0
51993.0,STARLINK-3648,PAYLOAD,2024-08-02 01:23:07,15.08853131,0.000134,53.2167,143.6366,89.2269,270.8876,0.00011044,1.471e-05,0.0,0 STARLINK-3648,1 51993U 22025AP  24215.05772286  .00001471  00000-0  11044-3 0  9995,2 51993  53.2167 143.6366 0001340  89.2269 270.8876 15.08853131133916,6917.84,95.437,540.632,538.778,0.0
51993.0,STARLINK-3648,PAYLOAD,2024-08-02 12:30:50,15.08840253,0.0001583,53.2171,141.5586,81.2527,278.8644,7.4902e-05,9.04e-06,0.0,0 STARLINK-3648,1 51993U 22025AP  24215.52141330  .00000904  00000-0  74902-4 0  9990,2 51993  53.2171 141.5586 0001583  81.2527 278.8644 15.08840253133989,6917.88,95.438,540.84,538.65,0.0
